SENTINEL-3A             
1 41335U 16011A   26198.93343549  .00000040  00000+0  34744-4 0  9990
2 41335  98.6235 265.8732 0001334  89.4056 270.7277 14.26740239542446
SENTINEL-3B             
1 43437U 18039A   26198.83645340  .00000049  00000+0  38405-4 0  9997
2 43437  98.6235 265.9266 0001210 119.6038 240.5263 14.26736832428495
